GLOBALSTAR M035         
1 25851U 99037A   24153.40266223 -.00000087  00000+0 -89168-3 0  9990
2 25851  51.9912 184.1441 0013086  85.8508  14.5920 11.04531086 54183
GLOBALSTAR M032         
1 25852U 99037B   24153.09831242 -.00000022  00000+0  14475-2 0  9991
2 25852  51.9982  36.3137 0009311 244.7533 115.2302 11.19053655 92127
GLOBALSTAR M051         
1 25853U 99037C   24153.46101023 -.00000055  00000+0  41194-3 0  9995
2 25853  51.9788 239.3412 0001445 235.2624 124.8051 11.42198070 88881
GLOBALSTAR M030         
1 25854U 99037D   24153.15693608 -.00000112  00000+0 -77619-3 0  9993
2 25854  51.9891  70.4063 0004230  81.3949 278.7347 11.55095332106012
GLOBALSTAR M048         
1 25872U 99041A   24153.28298692 -.00000054  00000+0  43301-3 0  9991
2 25872  51.9329 160.0750 0013743 246.3475 205.4453 11.33846708 81770
GLOBALSTAR M026         
1 25873U 99041B   24153.58266837 -.00000121  00000+0 -21041-2 0  9993
2 25873  52.0026 305.7070 0001039   2.0597  76.6617 11.06834882106348
GLOBALSTAR M043         
1 25874U 99041C   24153.60359104 -.00000110  00000+0 -12388-2 0  9999
2 25874  51.9401 251.7906 0012079  24.5310  79.8497 11.25680173 80019
GLOBALSTAR M028         
1 25875U 99041D   24153.47045092 -.00000057  00000+0  27723-3 0  9992
2 25875  51.9625 248.2724 0062882 324.7162  34.9546 12.50556855142546
